BRKEY,ON_UNDER,FACILITY,ROADWAY_NAME,FEATURE_INTERSECTED,DISTRICT,COUNTY,CITY - TOWNSHIP,LOCATION DESC,OWNER,VERTICAL_CLR_RD1_FEET,VERTICAL_CLR_RD2_FEET,HORIZONTAL_CLR_RD1_FEET,HORIZONTAL_CLR_RD2_FEET,PERMIT_CODE_48K_CODE,PERMIT_CODE_48K_DESC,PERMIT_CODE_60K_CODE,PERMIT_CODE_60K_DESC,PERMIT_CODE_72K_CODE,PERMIT_CODE_72K_DESC,VEHICLE_POSTED_CAPACITY,SEMI_POSTED_CAPACITY,DOUBLE_POSTED_CAPACITY,LATITUDE,LONGITUDE,inBbox
02502,1,CSAH 28,CSAH 28,SEELYE BROOK,METRO,ANOKA,ST FRANCIS,0.1 MI W OF JCT CR 71,COUNTY HIGHWAY AGENCY,100.0,100.0,28.1,100.0,X,DENIED,X,DENIED,X,DENIED,32.0,,,45.402922,-93.417939,True
02J26,1,MSAS 143,LAKES PKWY NE,LAKE CHANNEL,METRO,ANOKA,BLAINE,0.9 MI E OF JCT CSAH 52,CITY OR MUNICIPAL HIGHWA,100.0,100.0,39.0,100.0,X,DENIED,X,DENIED,X,DENIED,,,,45.192647,-93.195672,True
02J28,1,MUN 1053,EDISON ST,LAKE CHANNEL,METRO,ANOKA,BLAINE,0.1 MI S OF LAKE BLVD,CITY OR MUNICIPAL HIGHWA,100.0,100.0,27.0,100.0,X,DENIED,X,DENIED,X,DENIED,,,,45.180892,-93.1957,True
05505,1,CSAH 22,CSAH 22 (165 ST NE),W BR RUM RIVER,03,BENTON,GRANITE LEDGE (TOWNSHIP ,0.2 MI W OF JCT CSAH 7,COUNTY HIGHWAY AGENCY,100.0,100.0,29.5,100.0,X,DENIED,X,DENIED,X,DENIED,36.0,40.0,40.0,45.807381,-93.828658,True
05507,1,CSAH 12,CSAH 12 (PINE RD NE),LITTLE ROCK CREEK,03,BENTON,LANGOLA (TOWNSHIP OF),0.7 MI NE OF JCT 10,COUNTY HIGHWAY AGENCY,100.0,100.0,29.3,100.0,X,DENIED,X,DENIED,X,DENIED,26.0,40.0,40.0,45.763747,-94.205064,True
05508,1,CSAH 13,CSAH 13 (LITTLE ROCK RD NE),ELK RIVER,03,BENTON,MAYHEW LAKE (TOWNSHIP OF,1.0 MI W OF JCT CSAH 3,COUNTY HIGHWAY AGENCY,100.0,100.0,30.6,100.0,X,DENIED,X,DENIED,X,DENIED,30.0,36.0,36.0,45.713225,-94.007692,True
05518,1,CR 51,55TH ST NE,ST FRANCIS RIVER,03,BENTON,GLENDORADO (TOWNSHIP OF),0.4 MI W OF JCT CSAH 6,COUNTY HIGHWAY AGENCY,100.0,100.0,30.4,100.0,X,DENIED,X,DENIED,X,DENIED,18.0,28.0,28.0,45.648272,-93.868181,True
05519,1,CR 67,CR 67 (155TH AVE NE),ST FRANCIS RIVER,03,BENTON,MAYWOOD (TOWNSHIP OF),0.2 MI N OF JCT TH 23,COUNTY HIGHWAY AGENCY,100.0,100.0,30.2,100.0,X,DENIED,X,DENIED,X,DENIED,30.0,,,45.691308,-93.844231,True
07503,1,CSAH 16,CSAH 16,LITTLE COBB RIVER,07,BLUE EARTH,BEAUFORD (TOWNSHIP OF),0.3 MI NW OF JCT CR 168,COUNTY HIGHWAY AGENCY,100.0,100.0,29.6,100.0,X,DENIED,X,DENIED,X,DENIED,38.0,,,43.996564,-93.909119,True
07590,1,PEDESTRIAN,MINNEOPA TRAIL,FILL,07,BLUE EARTH,SOUTH BEND (TOWNSHIP OF),0.1 MI W OF JCT TH 68;169,COUNTY HIGHWAY AGENCY,8.0,100.0,100.0,100.0,,,,,,,,,,44.152936,-94.063392,True
10502,1,CSAH 41,CSAH 41,SILVER CREEK,METRO,CARVER,SAN FRANCISCO (TOWNSHIP ,0.2 MI N OF JCT CSAH 52,COUNTY HIGHWAY AGENCY,100.0,100.0,28.5,100.0,X,DENIED,X,DENIED,X,DENIED,30.0,40.0,40.0,44.691172,-93.735803,True
1222,1,T 74,SKI RD,STREAM,06,GOODHUE,FLORENCE (TOWNSHIP OF),0.4 MI S OF JCT TH 61,TOWN OR TOWNSHIP HIGHWAY,100.0,100.0,18.0,100.0,X,DENIED,X,DENIED,X,DENIED,14.0,22.0,22.0,44.52925,-92.416439,True
1232,1,MUN 92,BRIDGE SQ,CANNON RIVER,06,RICE,NORTHFIELD,0.1 MI E OF JCT TH 3,CITY OR MUNICIPAL HIGHWA,100.0,100.0,31.0,100.0,X,DENIED,X,DENIED,X,DENIED,20.0,40.0,40.0,44.4566,-93.161189,True
13506,1,MUN 221,VIKING BLVD,S BR SUNRISE RIVER,METRO,CHISAGO,WYOMING,2.3 MI SW OF JCT CR 79,CITY OR MUNICIPAL HIGHWA,100.0,100.0,26.5,100.0,X,DENIED,X,DENIED,X,DENIED,28.0,40.0,40.0,45.353247,-92.968467,True
1713,1,T 172,180TH AVE,STREAM,06,GOODHUE,GOODHUE (TOWNSHIP OF),1.8 MI S OF JCT CSAH 1,TOWN OR TOWNSHIP HIGHWAY,100.0,100.0,25.3,100.0,X,DENIED,X,DENIED,X,DENIED,16.0,24.0,24.0,44.439222,-92.671347,True
19505,1,T 172,AUDREY AVE,S BR VERMILLION RIVER,METRO,DAKOTA,CASTLE ROCK (TOWNSHIP OF,1.4 MI N OF JCT CSAH 80,TOWN OR TOWNSHIP HIGHWAY,100.0,100.0,24.6,100.0,X,DENIED,X,DENIED,X,DENIED,40.0,,,44.614278,-93.07,True
19509,1,T 160,EVELETH AVE,CHUB CREEK,METRO,DAKOTA,GREENVALE (TOWNSHIP OF),2.5 MI N OF JCT CR 96,TOWN OR TOWNSHIP HIGHWAY,100.0,100.0,24.4,100.0,X,DENIED,X,DENIED,X,DENIED,26.0,40.0,40.0,44.521811,-93.180589,True
19524,1,T 103,BOYD AVE,SPRING CREEK,METRO,DAKOTA,SCIOTA (TOWNSHIP OF),0.3 MI N OF JCT TH 19,TOWN OR TOWNSHIP HIGHWAY,100.0,100.0,24.0,100.0,X,DENIED,X,DENIED,X,DENIED,40.0,,,44.4768,-93.048897,True
19555,2,,77th St,,,,,,,11.8,100.0,19.8,100.0,,,,,,,,,,44.838061,-93.016022,True
19821,C,,I 35 SB ON RAMP FROM I 494,,,,,,,19.1,100.0,8.0,100.0,,,,,,,,,,44.858094,-93.146122,True
20502,1,CSAH 9,210TH AVE,S BR MID FK ZUMBRO RIVER,06,DODGE,WASIOJA,0.5 MI S OF JCT CSAH 16,COUNTY HIGHWAY AGENCY,100.0,100.0,30.0,100.0,X,DENIED,X,DENIED,X,DENIED,40.0,,,44.073411,-92.818978,True
20515,1,CSAH 24,CSAH 24,STREAM,06,DODGE,CONCORD (TOWNSHIP OF),0.1 MI W OF JCT CSAH 22,COUNTY HIGHWAY AGENCY,100.0,100.0,44.6,100.0,3,MAX SPEED 10MPH,3,MAX SPEED 10MPH,X,DENIED,,,,44.147617,-92.838867,True
20516,1,CR A,520TH ST,N BR MID FK ZUMBRO RIVER,06,DODGE,CONCORD (TOWNSHIP OF),0.5 MI W OF JCT CSAH 7,COUNTY HIGHWAY AGENCY,100.0,100.0,32.0,100.0,X,DENIED,X,DENIED,X,DENIED,24.0,40.0,40.0,44.196819,-92.8711,True
20531,1,CSAH 22,562ND ST,MILLIKEN CREEK,06,DODGE,MILTON (TOWNSHIP OF),0.6 MI E OF JCT TH 57,COUNTY HIGHWAY AGENCY,100.0,100.0,32.0,100.0,X,DENIED,X,DENIED,X,DENIED,36.0,40.0,40.0,44.134606,-92.768425,True
2266,2,,MUN 27,,,,,,,11.2,100.0,29.3,100.0,,,,,,,,,,44.115097,-93.717742,True
2364,1,T 48,185TH AVE,DITCH,06,DODGE,WASIOJA,0.8 MI N OF JCT CR R,TOWN OR TOWNSHIP HIGHWAY,100.0,100.0,24.0,100.0,X,DENIED,X,DENIED,X,DENIED,20.0,36.0,36.0,44.065631,-92.869744,True
2440,1,MN 65,MN 65 (3RD AVE S),MISS RVR; MAIN; W RVR PK,METRO,HENNEPIN,MINNEAPOLIS,0.3 MI NE OF JCT TH 952A,STATE HIGHWAY AGENCY,100.0,100.0,58.7,100.0,X,DENIED,X,DENIED,X,DENIED,,,,44.983417,-93.258858,True
2441,2,,W RIVER PKWY,,,,,,,12.5,100.0,28.4,100.0,,,,,,,,,,44.963919,-93.222656,True
25501,1,CSAH 2,CSAH 2,WELLS CREEK,06,GOODHUE,BELVIDERE (TOWNSHIP OF),0.4 MI S OF JCT CR 45,COUNTY HIGHWAY AGENCY,100.0,100.0,29.5,100.0,X,DENIED,X,DENIED,X,DENIED,26.0,40.0,40.0,44.45465,-92.480919,True
25516,1,CSAH 8,CSAH 8,BELLE CREEK,06,GOODHUE,BELLE CREEK (TOWNSHIP OF,0.25 MI N OF JCT CSAH 9,COUNTY HIGHWAY AGENCY,100.0,100.0,34.1,100.0,X,DENIED,X,DENIED,X,DENIED,24.0,40.0,40.0,44.400842,-92.763039,True
25534,1,CSAH 14,CSAH 14,BUTLER CREEK,06,GOODHUE,LEON (TOWNSHIP OF),0.4 MI S OF JCT TH 52,COUNTY HIGHWAY AGENCY,100.0,100.0,36.6,100.0,1,NO RESTRICTION,X,DENIED,X,DENIED,,,,44.450797,-92.906211,True
25J07,1,T 197,360TH ST,STREAM,06,GOODHUE,BELLE CREEK (TOWNSHIP OF,0.3 MI W OF JCT CSAH 8,TOWN OR TOWNSHIP HIGHWAY,100.0,100.0,24.0,100.0,X,DENIED,X,DENIED,X,DENIED,18.0,28.0,28.0,44.427486,-92.78205,True
27027,1,UTILITIES,FT SNELLING PARK,TH 5,METRO,HENNEPIN,FORT SNELLING (UNORGANIZ,0.1 MI NE OF JCT TH 55,STATE HIGHWAY AGENCY,100.0,100.0,100.0,100.0,X,DENIED,X,DENIED,X,DENIED,24.0,40.0,40.0,44.893047,-93.182908,True
27097,C,,ALLEY,,,,,,,12.0,100.0,12.0,100.0,,,,,,,,,,44.899792,-93.247231,True
27551,1,CSAH 9,ROCKFORD RD,US 169,METRO,HENNEPIN,PLYMOUTH,3.4 MI S OF JCT TH 94,STATE HIGHWAY AGENCY,100.0,100.0,43.0,43.0,X,DENIED,X,DENIED,X,DENIED,,,,45.033325,-93.400811,True
27595,1,MSAS 103,CARTWAY RD,ELM CREEK,METRO,HENNEPIN,CHAMPLIN,0.5 MI S OF JCT CSAH 12,CITY OR MUNICIPAL HIGHWA,100.0,100.0,33.3,100.0,X,DENIED,X,DENIED,X,DENIED,36.0,40.0,40.0,45.184308,-93.401869,True
27998,1,CON 2953,I 94 EB OFF RMP TO HURON ST,I 94; WB OFF RAMP,METRO,HENNEPIN,MINNEAPOLIS,1.6 MI SE OF JCT TH 55,STATE HIGHWAY AGENCY,100.0,100.0,30.0,100.0,1,NO RESTRICTION,1,NO RESTRICTION,X,DENIED,,,,44.967208,-93.221236,True
27B00,2,,5TH ST NE,,,,,,,13.0,100.0,35.2,100.0,,,,,,,,,,45.030419,-93.260025,True
27B07,2,,Main St NE,,,,,,,13.4,100.0,36.0,100.0,,,,,,,,,,45.029369,-93.267731,True
27V68,C,,RAMP (MN 62 WB TO I-35W SB),,,,,,,17.4,100.0,8.0,100.0,,,,,,,,,,44.889753,-93.293853,True
2888,1,CSAH 24,CSAH 24,STREAM,06,DODGE,MILTON (TOWNSHIP OF),0.8 MI E OF JCT CSAH 11,COUNTY HIGHWAY AGENCY,100.0,100.0,28.0,100.0,X,DENIED,X,DENIED,X,DENIED,10.0,18.0,18.0,44.179006,-92.724669,True
2951,1,CSAH 54,CSAH 54,DRY RUN,METRO,DAKOTA,RAVENNA (TOWNSHIP OF),2.9 MI SE OF JCT CR 91,COUNTY HIGHWAY AGENCY,100.0,100.0,32.0,100.0,X,DENIED,X,DENIED,X,DENIED,20.0,32.0,32.0,44.717125,-92.781144,True
2992,1,T 231,234TH AVE,WEST INDIAN CREEK,06,WABASHA,PLAINVIEW (TOWNSHIP OF),0.2 MI N OF JCT TH42,TOWN OR TOWNSHIP HIGHWAY,100.0,100.0,22.1,100.0,X,DENIED,X,DENIED,X,DENIED,21.0,34.0,34.0,44.191428,-92.138925,True
30506,1,CR 63,VERDIN ST NW,STANCHFIELD CREEK,03,ISANTI,MAPLE RIDGE (TOWNSHIP OF,0.1 MI N OF JCT CSAH 3,COUNTY HIGHWAY AGENCY,100.0,100.0,30.0,100.0,X,DENIED,X,DENIED,X,DENIED,22.0,40.0,40.0,45.675189,-93.327208,True
3310,1,CSAH 35,CSAH 35,RICE CREEK,METRO,ANOKA,FRIDLEY,0.4 MI N OF JCT CSAH 6,COUNTY HIGHWAY AGENCY,100.0,100.0,47.0,100.0,X,DENIED,X,DENIED,X,DENIED,26.0,40.0,40.0,45.091675,-93.237922,True
33502,1,CR 68,SHERWOOD ST,MUD CREEK,03,KANABEC,COMFORT (TOWNSHIP OF),1.3 MI N OF JCT CSAH 1,COUNTY HIGHWAY AGENCY,100.0,100.0,24.2,100.0,X,DENIED,X,DENIED,X,DENIED,22.0,38.0,38.0,45.885097,-93.142381,True
33510,1,CR 53,DELTA ST,GROUNDHOUSE RIVER,03,KANABEC,KANABEC (TOWNSHIP OF),0.1 MI N OF JCT CR 55,COUNTY HIGHWAY AGENCY,100.0,100.0,26.1,100.0,X,DENIED,X,DENIED,X,DENIED,32.0,,,45.849536,-93.452422,True
3369,1,T 108,170TH AVE,MID FK ZUMBRO RIVER,06,DODGE,CONCORD (TOWNSHIP OF),0.2 MI N OF JCT CR B,TOWN OR TOWNSHIP HIGHWAY,100.0,100.0,21.0,100.0,X,DENIED,X,DENIED,X,DENIED,34.0,,,44.178661,-92.899375,True
3659,1,CSAH 24,CSAH 24,STREAM,06,DODGE,CONCORD (TOWNSHIP OF),2.0 MI W OF JCT TH 57,COUNTY HIGHWAY AGENCY,100.0,100.0,37.5,100.0,X,DENIED,X,DENIED,X,DENIED,22.0,35.0,35.0,44.167256,-92.816253,True
40501,1,CSAH 12,CSAH 12,BIG CANNON RIVER,07,LE SUEUR,WATERVILLE (TOWNSHIP OF),2.0 MI W OF JCT TH 13,COUNTY HIGHWAY AGENCY,100.0,100.0,29.0,100.0,X,DENIED,X,DENIED,X,DENIED,,,,44.241261,-93.629014,True
40504,1,CR 137,LE SUEUR AVE,SAND CREEK,07,LE SUEUR,MONTGOMERY (TOWNSHIP OF),0.1 MI S OF JCT CR 142,COUNTY HIGHWAY AGENCY,100.0,100.0,28.1,100.0,X,DENIED,X,DENIED,X,DENIED,24.0,40.0,40.0,44.454922,-93.524553,True
43502,1,CSAH 13,CSAH 13,HIGH ISLAND CREEK,08,MCLEOD,PENN (TOWNSHIP OF),1.0 MI N OF JCT CSAH 17,COUNTY HIGHWAY AGENCY,100.0,100.0,30.2,100.0,X,DENIED,X,DENIED,X,DENIED,32.0,,,44.675964,-94.315156,True
4358,1,MUN 42,MUN 42,WHITE WATER CREEK,07,LE SUEUR,WATERVILLE,0.1 MI W OF JCT TH 13,CITY OR MUNICIPAL HIGHWA,100.0,100.0,27.1,100.0,X,DENIED,X,DENIED,X,DENIED,12.0,22.0,22.0,44.218444,-93.562294,True
4510,1,CSAH 158,VERNON AVE,CP RAIL,METRO,HENNEPIN,EDINA,0.1 MI E OF JCT CSAH 20,COUNTY HIGHWAY AGENCY,100.0,100.0,25.0,25.0,X,DENIED,X,DENIED,X,DENIED,24.0,40.0,40.0,44.912317,-93.353561,True
4559,1,MUN 1608,S MINNEHAHA PRK DR,MINNEHAHA CREEK,METRO,HENNEPIN,MINNEAPOLIS,0.1 MI N OF JCT TH 55,"LOCAL PARK, FOREST, OR R",100.0,100.0,19.8,100.0,X,DENIED,X,DENIED,X,DENIED,4.0,,,44.915542,-93.212569,True
4654,1,PEDESTRIAN,PED (OLD MN 36),ST CROIX RIVER; PED,METRO,WASHINGTON,STILLWATER,AT WISONSIN STATE LINE,STATE HIGHWAY AGENCY,100.0,100.0,100.0,100.0,X,DENIED,X,DENIED,X,DENIED,28.0,40.0,40.0,45.056856,-92.801872,True
47519,1,T 211,592ND AVE,N FK CROW RIVER,08,MEEKER,MANANNAH (TOWNSHIP OF),0.9 MI N OF JCT CSAH 3,TOWN OR TOWNSHIP HIGHWAY,100.0,100.0,28.0,100.0,X,DENIED,X,DENIED,X,DENIED,36.0,,,45.259069,-94.577592,True
47521,1,CSAH 35,CSAH 35,S FK CROW RIVER,08,MEEKER,CEDAR MILLS (TOWNSHIP OF,1.2 MI N OF JCT TH 7,COUNTY HIGHWAY AGENCY,100.0,100.0,32.0,100.0,X,DENIED,X,DENIED,X,DENIED,26.0,40.0,40.0,44.960556,-94.563294,True
4766,2,,CSAH 36,,,,,,,13.1,100.0,28.0,100.0,,,,,,,,,,44.775883,-93.756103,True
49510,1,CSAH 35,CSAH 35,PLATTE RIVER,03,MORRISON,LITTLE FALLS (TOWNSHIP O,0.1 MI E OF JCT CR 256,COUNTY HIGHWAY AGENCY,100.0,100.0,30.1,100.0,X,DENIED,X,DENIED,X,DENIED,26.0,40.0,40.0,45.925622,-94.259606,True
49513,1,CSAH 21,CSAH 21,S BR TWO RIVERS,03,MORRISON,TWO RIVERS (TOWNSHIP OF),0.2 MI W OF JCT CSAH 24,COUNTY HIGHWAY AGENCY,100.0,100.0,32.9,100.0,X,DENIED,X,DENIED,X,DENIED,33.0,40.0,40.0,45.804475,-94.414406,True
49519,1,CR 252,CR 252 (PARK AVE SE),SKUNK RIVER,03,MORRISON,PIERZ,0.5 MI N OF JCT CR 251,COUNTY HIGHWAY AGENCY,100.0,100.0,32.0,100.0,X,DENIED,X,DENIED,X,DENIED,34.0,40.0,40.0,45.976231,-94.092522,True
49521,1,CSAH 52,CSAH 52,PIKE CREEK,03,MORRISON,LITTLE FALLS,0.9 MI N OF JCT CSAH 12,COUNTY HIGHWAY AGENCY,100.0,100.0,37.0,100.0,X,DENIED,X,DENIED,X,DENIED,,,,45.952786,-94.391031,True
49523,1,CSAH 52,CSAH 52,SWAN RIVER,03,MORRISON,SWAN RIVER (TOWNSHIP OF),5.7 MI S OF JCT CR 223,COUNTY HIGHWAY AGENCY,100.0,100.0,32.0,100.0,X,DENIED,X,DENIED,X,DENIED,36.0,,,45.918664,-94.389161,True
49524,1,CR 251,CR 251 (143RD ST),SKUNK RIVER,03,MORRISON,PIERZ (TOWNSHIP OF),0.2 MI E OF JCT TH 25,COUNTY HIGHWAY AGENCY,100.0,100.0,32.0,100.0,1,NO RESTRICTION,1,NO RESTRICTION,X,DENIED,,,,45.969964,-94.101669,True
49525,1,T 247,250TH AVE (TWP 247),SKUNK RIVER,03,MORRISON,PIERZ (TOWNSHIP OF),1.5 MI S OF JCT CR 254,TOWN OR TOWNSHIP HIGHWAY,100.0,100.0,28.0,100.0,X,DENIED,X,DENIED,X,DENIED,32.0,,,45.934075,-94.134719,True
49527,1,T 153,80TH AVE (TWP 153),SWAN RIVER,03,MORRISON,SWAN RIVER (TOWNSHIP OF),0.1 MI S OF JCT CSAH 12,TOWN OR TOWNSHIP HIGHWAY,100.0,100.0,28.0,100.0,X,DENIED,X,DENIED,X,DENIED,32.0,,,45.905608,-94.493561,True
49534,1,CSAH 27,CSAH 27,PLATTE RIVER,03,MORRISON,BELLEVUE (TOWNSHIP OF),1.2 MI N OF JCT CSAH 26,COUNTY HIGHWAY AGENCY,100.0,100.0,32.0,100.0,1,NO RESTRICTION,1,NO RESTRICTION,X,DENIED,,,,45.844703,-94.294822,True
5020,1,CSAH 9,210TH AVE,MILLIKEN CREEK,06,DODGE,CONCORD (TOWNSHIP OF),1.3 MI S OF JCT CSAH 22,COUNTY HIGHWAY AGENCY,100.0,100.0,23.0,100.0,X,DENIED,X,DENIED,X,DENIED,18.0,34.0,34.0,44.120311,-92.819008,True
5194,2,,TR 322,,,,,,,11.8,100.0,22.0,100.0,,,,,,,,,,44.006886,-91.809775,True
5199A,2,,MN 7(FRTG RD),,,,,,,12.4,100.0,18.0,100.0,,,,,,,,,,44.937947,-93.362556,True
5263,1,PRIVATE RD,123RD ST,CREDIT RIVER,METRO,SCOTT,SAVAGE,0.2 MI S OF JCT TH 13,CITY OR MUNICIPAL HIGHWA,100.0,100.0,38.1,100.0,X,DENIED,X,DENIED,X,DENIED,24.0,40.0,40.0,44.778384,-93.343198,True
5336,2,,CSAH 45,,,,,,,13.0,100.0,22.0,100.0,,,,,,,,,,44.210494,-93.264694,True
55504,1,MSAS 114,EB CIVIC CENTER DR NW,CASCADE CREEK,06,OLMSTED,ROCHESTER,0.8 MI E OF JCT TH 52,CITY OR MUNICIPAL HIGHWA,100.0,100.0,33.5,100.0,X,DENIED,X,DENIED,X,DENIED,24.0,40.0,40.0,44.028033,-92.47265,True
5584,2,,ST ANTHONY PKWY (MUNI 2276),,,,,,,13.4,100.0,24.0,100.0,,,,,,,,,,45.029381,-93.279792,True
5592,2,,MUN 327,,,,,,,13.1,100.0,35.4,100.0,,,,,,,,,,44.989861,-93.083108,True
55J16,1,CR 102,97TH AVE NE,STREAM,06,OLMSTED,VIOLA (TOWNSHIP OF),1.0 MI N OF JCT CSAH 2,COUNTY HIGHWAY AGENCY,100.0,100.0,20.0,100.0,X,DENIED,X,DENIED,X,DENIED,14.0,24.0,24.0,44.079072,-92.279533,True
5664,1,CSAH 55,N JACKSON ST,BNSF RR,METRO,RAMSEY,ST PAUL,0.8 MI N OF JCT TH 94,COUNTY HIGHWAY AGENCY,100.0,100.0,40.0,100.0,X,DENIED,X,DENIED,X,DENIED,10.0,20.0,20.0,44.962872,-93.097922,True
5665,1,CSAH 1,W OLD SHAKOPEE RD,NINE MILE CREEK,METRO,HENNEPIN,BLOOMINGTON,0.3 MI SW OF JCT PENN AV,COUNTY HIGHWAY AGENCY,100.0,100.0,50.0,100.0,X,DENIED,X,DENIED,X,DENIED,,,,44.815931,-93.311972,True
5756,1,MUN 1612,SOLDIERS HOME RD,MINNEHAHA CREEK,METRO,HENNEPIN,MINNEAPOLIS,0.1 MI E OF JCT MHAHA A,OTHER STATE AGENCIES,100.0,100.0,20.0,100.0,X,DENIED,X,DENIED,X,DENIED,,,,44.912472,-93.206925,True
5759,1,LOC 1,TEEPEE TONKA PARK RD,STRAIGHT RIVER,06,RICE,FARIBAULT,0.1 MI S OF JCT TH 60,CITY OR MUNICIPAL HIGHWA,100.0,100.0,24.0,100.0,X,DENIED,X,DENIED,X,DENIED,34.0,39.0,39.0,44.290425,-93.263864,True
58505,1,CSAH 2,560TH ST,ROCK CREEK,01,PINE,ROCK CREEK,1.8 MI E OF JCT TH 361,COUNTY HIGHWAY AGENCY,100.0,100.0,30.3,100.0,1,NO RESTRICTION,X,DENIED,X,DENIED,,,,45.758931,-92.924233,True
58510,1,CSAH 61,MAIN ST N,SNAKE RIVER,01,PINE,PINE CITY,0.2 MI N OF JCT CSAH 8,COUNTY HIGHWAY AGENCY,100.0,100.0,49.0,100.0,X,DENIED,X,DENIED,X,DENIED,36.0,,,45.829669,-92.970506,True
5932,1,MN 74,MN 74,S FK WHITEWATER RIVER,06,WINONA,ST CHARLES,0.3 MI N OF W JCT TH 14,STATE HIGHWAY AGENCY,100.0,100.0,30.0,100.0,X,DENIED,X,DENIED,X,DENIED,34.0,40.0,40.0,43.975814,-92.069528,True
5962,1,MSAS 135,N FOREST ST,PHALEN BLVD; UP RR,METRO,RAMSEY,ST PAUL,0.1 MI N OF E 7TH ST,CITY OR MUNICIPAL HIGHWA,100.0,100.0,32.0,100.0,X,DENIED,X,DENIED,X,DENIED,25.0,39.0,40.0,44.966025,-93.060914,True
5966,1,CSAH 9,411TH AVE,HIGH ISLAND CREEK,07,SIBLEY,ARLINGTON (TOWNSHIP OF),0.9 MI N OF JCT CSAH 12,COUNTY HIGHWAY AGENCY,100.0,100.0,26.7,100.0,X,DENIED,X,DENIED,X,DENIED,26.0,40.0,40.0,44.622525,-94.091567,True
6010,2,,MSAS 126,,,,,,,13.1,100.0,32.0,100.0,,,,,,,,,,45.151797,-93.293014,True
6011A,2,,MSAS 126,,,,,,,13.3,100.0,28.0,100.0,,,,,,,,,,45.151644,-93.294319,True
6011B,2,,MSAS 126,,,,,,,13.3,100.0,28.0,100.0,,,,,,,,,,45.151569,-93.294314,True
6037,2,,CNTY 180,,,,,,,13.3,100.0,29.2,100.0,,,,,,,,,,44.080822,-93.202553,True
62530,1,CSAH 65,N WHITE BEAR AVE,UP RR,METRO,RAMSEY,ST PAUL,0.3 MI S OF JCT CSAH 31,COUNTY HIGHWAY AGENCY,100.0,100.0,52.0,100.0,1,NO RESTRICTION,1,NO RESTRICTION,X,DENIED,,,,44.9734,-93.025322,True
62546,1,CSAH 46,RAYMOND AVE,BNSF RR; MC RY YARDS,METRO,RAMSEY,ST PAUL,0.6 MI N OF UNIV AVE,COUNTY HIGHWAY AGENCY,100.0,100.0,44.0,100.0,X,DENIED,X,DENIED,X,DENIED,40.0,40.0,40.0,44.972775,-93.195817,True
62575,1,UTILITIES,OFF KELLOGG BLVD,LOADING DOCK RD E,METRO,RAMSEY,ST PAUL,AT RIVERCENTER,CITY OR MUNICIPAL HIGHWA,100.0,100.0,14.2,32.0,X,DENIED,X,DENIED,X,DENIED,,,,44.943508,-93.099442,True
65545,1,CSAH 8,CSAH 8,JUD DITCH # 11,08,RENVILLE,MARTINSBURG (TOWNSHIP OF,1.1 MI N OF JCT CSAH 4,COUNTY HIGHWAY AGENCY,100.0,100.0,32.0,100.0,1,NO RESTRICTION,X,DENIED,X,DENIED,,,,44.687711,-94.629386,True
6556,1,MSAS 118,KENRICK AVE,LAKE MARIO,METRO,DAKOTA,LAKEVILLE,0.62 MI S OF JCT CSAH 60,CITY OR MUNICIPAL HIGHWA,100.0,100.0,35.0,100.0,X,DENIED,X,DENIED,X,DENIED,,,,44.672944,-93.293489,True
6743,1,CSAH 45,CSAH 45,TURTLE CREEK,06,STEELE,OWATONNA (TOWNSHIP OF),0.9 S OF JCT CR60,COUNTY HIGHWAY AGENCY,100.0,100.0,40.0,100.0,1,NO RESTRICTION,1,NO RESTRICTION,X,DENIED,,,,44.025158,-93.226142,True
70003,A,,TH 13 EB RAMP,,,,,,,16.8,100.0,1.0,100.0,,,,,,,,,,44.779003,-93.378097,True
70505,1,CR 64,235TH ST W,SAND CREEK,METRO,SCOTT,HELENA (TOWNSHIP OF),0.5 MI W OF JCT CR 89,COUNTY HIGHWAY AGENCY,100.0,100.0,42.0,100.0,1,NO RESTRICTION,X,DENIED,X,DENIED,,,,44.608719,-93.550653,True
70513,1,MUN 99,LORDS ST NE,PRIOR LAKE,METRO,SCOTT,PRIOR LAKE,W OF MARTINSON ISLAND,CITY OR MUNICIPAL HIGHWA,100.0,100.0,28.1,100.0,X,DENIED,X,DENIED,X,DENIED,26.0,40.0,40.0,44.729389,-93.432097,True
7087,1,CSAH 11,CSAH 11,LITTLE COTTONWOOD RIVER,07,BROWN,SIGEL (TOWNSHIP OF),0.7 MI N OF JCT CSAH 22,COUNTY HIGHWAY AGENCY,100.0,100.0,24.0,100.0,X,DENIED,X,DENIED,X,DENIED,32.0,40.0,40.0,44.207272,-94.593147,True
71504,1,CSAH 15,CSAH 15,ELK RIVER,03,SHERBURNE,BIG LAKE (TOWNSHIP OF),0.3 MI SE OF JCT CR 35,COUNTY HIGHWAY AGENCY,100.0,100.0,30.1,100.0,X,DENIED,X,DENIED,X,DENIED,20.0,38.0,38.0,45.334239,-93.666458,True
71505,1,CSAH 4,CSAH 4,ST FRANCIS RIVER,03,SHERBURNE,ORROCK (TOWNSHIP OF),0.9 MI W OF JCT CSAH1,COUNTY HIGHWAY AGENCY,100.0,100.0,36.1,100.0,X,DENIED,X,DENIED,X,DENIED,18.0,34.0,34.0,45.443761,-93.655097,True
71507,1,CSAH 16,CSAH 16,STREAM,03,SHERBURNE,PALMER (TOWNSHIP OF),0.4 MI E OF JCT CSAH 6,COUNTY HIGHWAY AGENCY,100.0,100.0,36.3,100.0,X,DENIED,X,DENIED,X,DENIED,34.0,,,45.486744,-93.956947,True
71508,1,CSAH 16,CSAH 16,LILY CREEK,03,SHERBURNE,PALMER (TOWNSHIP OF),1.6 MI W OF JCT TH 25,COUNTY HIGHWAY AGENCY,100.0,100.0,37.3,100.0,X,DENIED,X,DENIED,X,DENIED,32.0,,,45.484256,-93.936439,True
71509,1,CSAH 15,CSAH 15,ST FRANCIS RIVER,03,SHERBURNE,ORROCK (TOWNSHIP OF),3.1 MI S OF JCT CSAH 4,COUNTY HIGHWAY AGENCY,100.0,100.0,36.1,100.0,X,DENIED,X,DENIED,X,DENIED,40.0,,,45.399392,-93.685211,True
71510,1,CSAH 16,CSAH 16,RICE CREEK,03,SHERBURNE,PALMER (TOWNSHIP OF),0.9 MI W OF JCT CSAH6,COUNTY HIGHWAY AGENCY,100.0,100.0,36.3,100.0,X,DENIED,X,DENIED,X,DENIED,32.0,,,45.486636,-93.979514,True
71513,1,CR 62,17TH ST,ELK RIVER,03,SHERBURNE,HAVEN (TOWNSHIP OF),0.5 MI W OF JCT CR 79,COUNTY HIGHWAY AGENCY,100.0,100.0,32.0,100.0,X,DENIED,X,DENIED,X,DENIED,40.0,,,45.544444,-94.037797,True
7164,1,CSAH 5,CSAH 5,N FK CROW RIVER,03,WRIGHT,MIDDLEVILLE (TOWNSHIP OF,1.7 MI NW OF JCT CR125,COUNTY HIGHWAY AGENCY,100.0,100.0,24.0,100.0,X,DENIED,X,DENIED,X,DENIED,22.0,40.0,40.0,45.1264,-94.114503,True
7189,1,CSAH 30,CSAH 30,WATONWAN RIVER,07,BLUE EARTH,CERESCO (TOWNSHIP OF),0.2 MI E OF JCT CSAH 31,COUNTY HIGHWAY AGENCY,100.0,100.0,28.5,100.0,1,NO RESTRICTION,3,MAX SPEED 10MPH,X,DENIED,,,,44.021308,-94.357208,True
7208,1,CSAH 13,CSAH 13,BLUE EARTH RIVER,07,BLUE EARTH,LYRA (TOWNSHIP OF),1.5 MI SE OF JCT CR 133,COUNTY HIGHWAY AGENCY,100.0,100.0,28.0,100.0,1,NO RESTRICTION,3,MAX SPEED 10MPH,X,DENIED,,,,44.010575,-94.111617,True
7244,1,CSAH 2,CSAH 2,CLEARWATER RIVER,03,WRIGHT,SOUTHSIDE (TOWNSHIP OF),AT N COUNTY LINE,COUNTY HIGHWAY AGENCY,100.0,100.0,28.0,100.0,X,DENIED,X,DENIED,X,DENIED,22.0,40.0,40.0,45.316203,-94.211128,True
72513,1,CSAH 9,411TH AVE,N BR RUSH R (CD 55/58),07,SIBLEY,KELSO (TOWNSHIP OF),0.1 MI S OF JCT CR 62,COUNTY HIGHWAY AGENCY,100.0,100.0,36.3,100.0,X,DENIED,X,DENIED,X,DENIED,32.0,,,44.513317,-94.090522,True
72520,1,T 89,320TH ST,MID BR RUSH R (CD 54),07,SIBLEY,KELSO (TOWNSHIP OF),0.6 MI E OF JCT CSAH 8,TOWN OR TOWNSHIP HIGHWAY,100.0,100.0,24.3,100.0,X,DENIED,X,DENIED,X,DENIED,26.0,40.0,40.0,44.485786,-94.116625,True
72521,1,T 116,361ST AVE,HIGH ISLAND CREEK,07,SIBLEY,JESSENLAND (TOWNSHIP OF),1.6 MI S OF JCT CSAH 12,TOWN OR TOWNSHIP HIGHWAY,100.0,100.0,34.0,100.0,X,DENIED,X,DENIED,X,DENIED,28.0,40.0,40.0,44.576117,-93.994728,True
72522,1,T 113,371ST AVE,HIGH ISLAND CREEK,07,SIBLEY,JESSENLAND (TOWNSHIP OF),1.4 MI S OF JCT CSAH 12,TOWN OR TOWNSHIP HIGHWAY,100.0,100.0,28.0,100.0,X,DENIED,X,DENIED,X,DENIED,34.0,,,44.595642,-94.010619,True
72523,1,T 92,425TH AVE,HIGH ISLAND CREEK (CD 8),07,SIBLEY,ARLINGTON (TOWNSHIP OF),0.7 MI N OF JCT CSAH 12,TOWN OR TOWNSHIP HIGHWAY,100.0,100.0,28.0,100.0,X,DENIED,X,DENIED,X,DENIED,35.0,,,44.619847,-94.122497,True
72524,1,T 61,461ST AVE,BUFFALO CREEK,07,SIBLEY,NEW AUBURN (TOWNSHIP OF),AT THE N CO LINE,TOWN OR TOWNSHIP HIGHWAY,100.0,100.0,28.0,100.0,X,DENIED,X,DENIED,X,DENIED,38.0,40.0,40.0,44.7174,-94.193131,True
72528,1,T 287,431ST AVE,N BR RUSH R (CD 55),07,SIBLEY,SIBLEY (TOWNSHIP OF),0.2 MI N OF JCT CR 62,TOWN OR TOWNSHIP HIGHWAY,100.0,100.0,28.1,100.0,X,DENIED,X,DENIED,X,DENIED,28.0,40.0,40.0,44.516981,-94.130006,True
7272,1,MUN 2167,RANDOLPH AVE,UP RR,METRO,RAMSEY,ST PAUL,0.5 MI E OF JCT TH 5,CITY OR MUNICIPAL HIGHWA,100.0,100.0,24.2,0.0,X,DENIED,X,DENIED,X,DENIED,34.0,40.0,40.0,44.927292,-93.118903,True
7333,2,,MSAS 104,,,,,,,11.9,11.9,20.6,20.7,,,,,,,,,,44.297875,-93.282967,True
7343,1,CSAH 26,CSAH 26,LITTLE ROCK CREEK,03,MORRISON,BELLEVUE (TOWNSHIP OF),1.1 MI W OF JCT CR 235,COUNTY HIGHWAY AGENCY,100.0,100.0,32.2,100.0,X,DENIED,X,DENIED,X,DENIED,24.0,40.0,40.0,45.830503,-94.201033,True
73545,1,CSAH 71,CSAH 71,CHAN BTWN LAKES,03,STEARNS,WAKEFIELD (TOWNSHIP OF),2.2 MI S OF JCT TH 23,COUNTY HIGHWAY AGENCY,100.0,100.0,36.0,100.0,X,DENIED,X,DENIED,X,DENIED,24.0,38.0,38.0,45.419097,-94.485686,True
79530,1,CR 75,CR 75,STREAM,06,WABASHA,CHESTER (TOWNSHIP OF),0.3 MI S OF JCT CSAH 16,COUNTY HIGHWAY AGENCY,100.0,100.0,28.1,100.0,X,DENIED,X,DENIED,X,DENIED,40.0,,,44.364181,-92.476106,True
79531,1,T 131,273RD AVE,MIDDLE CREEK,06,WABASHA,OAKWOOD (TOWNSHIP OF),1.9 MI N OF JCT CSAH 8,TOWN OR TOWNSHIP HIGHWAY,100.0,100.0,28.0,100.0,1,NO RESTRICTION,1,NO RESTRICTION,X,DENIED,,,,44.251444,-92.211844,True
79532,1,T 185,282ND AVE,STREAM,06,WABASHA,OAKWOOD (TOWNSHIP OF),0.2 MI S OF JCT CSAH 8,TOWN OR TOWNSHIP HIGHWAY,100.0,100.0,28.0,100.0,X,DENIED,X,DENIED,X,DENIED,32.0,,,44.227356,-92.234603,True
81508,1,CSAH 37,CSAH 37,CO DITCH # 6,07,WASECA,ALTON (TOWNSHIP OF),0.4 MI S OF JCT CSAH2,COUNTY HIGHWAY AGENCY,100.0,100.0,33.8,100.0,X,DENIED,X,DENIED,X,DENIED,36.0,40.0,40.0,44.074244,-93.768325,True
82501,1,CSAH 5,STONEBRIDGE TR N,MZ LTD; BROWNS CREEK,METRO,WASHINGTON,STILLWATER (TOWNSHIP OF),0.2 MI SE OF JCT TH 96,COUNTY HIGHWAY AGENCY,100.0,100.0,30.0,100.0,1,NO RESTRICTION,1,NO RESTRICTION,X,DENIED,,,,45.075517,-92.828531,True
82514,2,,103 ST,,,,,,,10.2,100.0,22.0,100.0,,,,,,,,,,44.800967,-92.971389,True
83505,1,CSAH 26,CSAH 26,CREEK,07,WATONWAN,FIELDON (TOWNSHIP OF),1.2 MI W OF JCT CSAH9,COUNTY HIGHWAY AGENCY,100.0,100.0,32.5,100.0,X,DENIED,X,DENIED,X,DENIED,38.0,,,43.978506,-94.393547,True
83506,1,CSAH 27,CSAH 27,WATONWAN RIVER,07,WATONWAN,RIVERDALE (TOWNSHIP OF),1.0 MI N OF S JCT CSAH 3,COUNTY HIGHWAY AGENCY,100.0,100.0,32.5,100.0,X,DENIED,X,DENIED,X,DENIED,32.0,,,44.064022,-94.588508,True
85505,1,CSAH 26,CSAH 26,WHITEWATER RIVER,06,WINONA,ELBA,0.1 MI E OF JCT TH74,COUNTY HIGHWAY AGENCY,100.0,100.0,29.8,100.0,X,DENIED,X,DENIED,X,DENIED,40.0,40.0,40.0,44.091756,-92.013953,True
85508,1,CSAH 30,CSAH 30,WHITEWATER RIVER,06,WINONA,WHITEWATER (TOWNSHIP OF),0.1 MI E OF JCT TH74,COUNTY HIGHWAY AGENCY,100.0,100.0,31.4,100.0,X,DENIED,X,DENIED,X,DENIED,40.0,40.0,40.0,44.150683,-92.00505,True
85513,1,CSAH 27,CSAH 27,BEAR CREEK,06,WINONA,NORTON (TOWNSHIP OF),1.4 MI SW OF JCT TH 248,COUNTY HIGHWAY AGENCY,100.0,100.0,33.9,100.0,X,DENIED,X,DENIED,X,DENIED,24.0,40.0,40.0,44.074108,-91.859239,True
85523,1,T 22,HOFFMAN HILL RD,SPELTZ CREEK,06,WINONA,ROLLINGSTONE (TOWNSHIP O,0.1 MI N OF JCT CSAH 25,TOWN OR TOWNSHIP HIGHWAY,100.0,100.0,28.6,100.0,X,DENIED,X,DENIED,X,DENIED,32.0,40.0,40.0,44.1081,-91.827264,True
86501,1,MSAS 108,BRIDGE AVE,S FK CROW RIVER,03,WRIGHT,DELANO,0.1 MI E OF JCT TH 12,CITY OR MUNICIPAL HIGHWA,100.0,100.0,30.0,100.0,1,NO RESTRICTION,2,STRADDLE 2 LANES,X,DENIED,,,,45.041939,-93.789817,True
88013,1,CR 121,221ST AVE,CO DITCH # 45,07,LE SUEUR,DERRYNANE (TOWNSHIP OF),1.4 MI S OF JCT CSAH 28,COUNTY HIGHWAY AGENCY,100.0,100.0,24.0,100.0,X,DENIED,X,DENIED,X,DENIED,18.0,32.0,32.0,44.465828,-93.708275,True
88016,1,CSAH 46,CSAH 46,CHERRY CREEK,07,LE SUEUR,CLEVELAND,0.1 MI S OF JCT TH 99,COUNTY HIGHWAY AGENCY,100.0,100.0,38.0,100.0,X,DENIED,X,DENIED,X,DENIED,20.0,36.0,36.0,44.325428,-93.840217,True
88035,2,,86th St,,,,,,,9.6,100.0,16.0,100.0,,,,,,,,,,44.196522,-93.252097,True
88053,1,CR 81,KANE AVE,STREAM,06,RICE,NORTHFIELD (TOWNSHIP OF),0.7 MI N OF JCT TH 246,COUNTY HIGHWAY AGENCY,100.0,100.0,28.0,100.0,X,DENIED,X,DENIED,X,DENIED,18.0,30.0,30.0,44.417269,-93.080339,True
88071,2,,MINERAL SPRINGS ROAD,,,,,,,11.6,100.0,32.0,100.0,,,,,,,,,,44.089231,-93.220117,True
88497,1,CSAH 2,OLD HWY 14,STREAM,06,WASECA,WOODVILLE (TOWNSHIP OF),5.3 MI E OF JCT TH 13,COUNTY HIGHWAY AGENCY,100.0,100.0,40.0,100.0,X,DENIED,X,DENIED,X,DENIED,,,,44.087436,-93.406403,True
89102,1,CSAH 9,220TH AVE,DITCH,06,DODGE,CANISTEO (TOWNSHIP OF),1.0 MI S OF JCT CSAH 10,COUNTY HIGHWAY AGENCY,100.0,100.0,22.0,100.0,X,DENIED,X,DENIED,X,DENIED,24.0,40.0,40.0,43.993667,-92.798958,True
89124,1,CSAH 18,590TH ST,STREAM,06,DODGE,MANTORVILLE (TOWNSHIP OF,1.6 MI W OF CO LINE,COUNTY HIGHWAY AGENCY,100.0,100.0,26.0,100.0,X,DENIED,X,DENIED,X,DENIED,20.0,30.0,30.0,44.094361,-92.711267,True
89127,1,CSAH 24,CSAH 24,STREAM,06,DODGE,MILTON (TOWNSHIP OF),0.8 MI E OF JCT TH 57,COUNTY HIGHWAY AGENCY,100.0,100.0,26.0,100.0,X,DENIED,X,DENIED,X,DENIED,26.0,40.0,40.0,44.166175,-92.766022,True
9036,B,,2nd Street,,,,,,,12.1,100.0,28.0,100.0,,,,,,,,,,44.943889,-93.087472,True
90378,A,,EXCHANGE ST,,,,,,,12.7,100.0,29.1,100.0,,,,,,,,,,44.943581,-93.100808,True
90405,2,,CSAH 51,,,,,,,12.1,100.0,35.7,100.0,,,,,,,,,,44.973575,-93.146561,True
90410,2,,WESTMINSTER ST,,,,,,,11.5,100.0,35.7,100.0,,,,,,,,,,44.986042,-93.086206,True
90411,2,,CSAH 58,,,,,,,13.2,100.0,24.0,100.0,,,,,,,,,,45.043797,-93.076667,True
90421,2,,MUN 1912,,,,,,,12.1,100.0,34.0,100.0,,,,,,,,,,44.9325,-93.128219,True
90423,2,,CSAH 64,,,,,,,13.1,100.0,24.6,100.0,,,,,,,,,,44.969636,-93.044997,True
90475,1,CSAH 17,FRANCE AVE S,NINE MILE CREEK,METRO,HENNEPIN,BLOOMINGTON,1.8 MI N OF JCT CSAH 1,COUNTY HIGHWAY AGENCY,100.0,100.0,66.7,100.0,X,DENIED,X,DENIED,X,DENIED,24.0,40.0,40.0,44.836892,-93.329353,True
90482,1,MUN 1697,NOKOMIS AVE S,MINNEHAHA CREEK,METRO,HENNEPIN,MINNEAPOLIS,0.1 MI S OF E 46TH ST,CITY OR MUNICIPAL HIGHWA,100.0,100.0,30.0,100.0,X,DENIED,X,DENIED,X,DENIED,32.0,40.0,40.0,44.919117,-93.228364,True
90490,1,MSAS 426,PENN AVE S,MINNEHAHA CREEK,METRO,HENNEPIN,MINNEAPOLIS,0.3 MI S OF JCT W 50TH S,CITY OR MUNICIPAL HIGHWA,100.0,100.0,36.7,100.0,X,DENIED,X,DENIED,X,DENIED,,,,44.908122,-93.308661,True
90515,1,CSAH 10,CSAH 10,PERCH CREEK,07,BLUE EARTH,CERESCO (TOWNSHIP OF),0.7 MI S OF JCT CO R 135,COUNTY HIGHWAY AGENCY,100.0,100.0,24.0,100.0,X,DENIED,X,DENIED,X,DENIED,30.0,,,43.974286,-94.339181,True
90602,2,,CSAH 66(BROADWAY),,,,,,,13.4,100.0,60.0,100.0,,,,,,,,,,44.999131,-93.278586,True
90617,1,CSAH 121,FERNBROOK LA,RUSH CREEK,METRO,HENNEPIN,MAPLE GROVE,0.7 MI N OF JCT CSAH 81,COUNTY HIGHWAY AGENCY,100.0,100.0,30.0,100.0,X,DENIED,X,DENIED,X,DENIED,,,,45.150089,-93.461936,True
90627,1,CR 26,CR 26,PAINTER CREEK,METRO,HENNEPIN,MINNETRISTA,0.6 MI W OF JCT CSAH 110,COUNTY HIGHWAY AGENCY,100.0,100.0,27.1,100.0,X,DENIED,X,DENIED,X,DENIED,16.0,28.0,28.0,44.975014,-93.687103,True
90643,1,MSAS 141,W 50TH ST (MSAS 141),MINNEHAHA CREEK,METRO,HENNEPIN,EDINA,0.4 MI E OF JCT TH 100,CITY OR MUNICIPAL HIGHWA,100.0,100.0,64.0,100.0,X,DENIED,X,DENIED,X,DENIED,26.0,40.0,40.0,44.911983,-93.342378,True
90646,1,MSAS 150,WOODDALE AVE (MSAS 150),MINNEHAHA CREEK,METRO,HENNEPIN,EDINA,0.5 MI E OF JCT TH 100,CITY OR MUNICIPAL HIGHWA,100.0,100.0,31.0,100.0,X,DENIED,X,DENIED,X,DENIED,36.0,40.0,40.0,44.911775,-93.339256,True
90661,A,,DEAN BLVD,,,,,,,12.3,100.0,14.0,100.0,,,,,,,,,,44.950986,-93.316619,True
90661,B,,DEAN BLVD,,,,,,,12.3,100.0,14.0,100.0,,,,,,,,,,44.950986,-93.316619,True
90673,2,,MSAS 275(VIRGINIA AVE),,,,,,,11.7,11.8,14.1,14.1,,,,,,,,,,44.954403,-93.383444,True
90674,2,,MSAS 304(CAMBRIDGE ST),,,,,,,13.4,100.0,30.3,100.0,,,,,,,,,,44.933436,-93.358986,True
90683,2,,CSAH 6,,,,,,,11.9,100.0,34.0,100.0,,,,,,,,,,45.062225,-94.073761,True
90687,1,CR 108,10TH ST SW,BUFFALO CREEK,03,WRIGHT,MARYSVILLE (TOWNSHIP OF),0.6 MI W OF JCT CSAH12,COUNTY HIGHWAY AGENCY,100.0,100.0,27.0,100.0,X,DENIED,X,DENIED,X,DENIED,18.0,29.0,29.0,45.138756,-93.909133,True
90991,2,,TNSP 391,,,,,,,11.3,100.0,28.0,100.0,,,,,,,,,,45.081264,-94.28675,True
90999,2,,STR 37,,,,,,,13.2,13.2,14.0,14.3,,,,,,,,,,45.080608,-94.296981,True
91255,1,CR 145,CR 145,CLEARWATER RIVER,03,STEARNS,LYNDEN (TOWNSHIP OF),AT THE E CO LINE,COUNTY HIGHWAY AGENCY,100.0,100.0,32.0,100.0,X,DENIED,X,DENIED,X,DENIED,26.0,40.0,40.0,45.411328,-94.062042,True
91334,1,MSAS 221,I 94 E FRONTAGE RD,Bassett Creek,METRO,HENNEPIN,MINNEAPOLIS,0.2 MI N OF JCT TH 55,STATE HIGHWAY AGENCY,100.0,100.0,52.0,100.0,X,DENIED,X,DENIED,X,DENIED,,,,44.986953,-93.288078,True
91478,1,CSAH 31,CSAH 31,TROUT CREEK,06,WINONA,MOUNT VERNON (TOWNSHIP O,1.5 MI NE OF JCT CSAH 30,COUNTY HIGHWAY AGENCY,100.0,100.0,36.0,100.0,X,DENIED,X,DENIED,X,DENIED,24.0,38.0,38.0,44.157181,-91.930992,True
92000,2,,TNSP 22,,,,,,,12.0,12.3,14.1,13.9,,,,,,,,,,45.085822,-94.358986,True
92007,1,CR 151,CR 151,SPUNK CREEK,03,STEARNS,HOLDING (TOWNSHIP OF),2.6 MI N OF JCT CSAH52,COUNTY HIGHWAY AGENCY,100.0,100.0,28.0,100.0,X,DENIED,X,DENIED,X,DENIED,28.0,,,45.710756,-94.408753,True
92022,1,CR 160,CR 160,WATAB RIVER,03,STEARNS,ST JOSEPH (TOWNSHIP OF),0.2 MI W OF JCT CSAH2,COUNTY HIGHWAY AGENCY,100.0,100.0,28.0,100.0,X,DENIED,X,DENIED,X,DENIED,,,,45.526061,-94.364839,True
92082,1,CSAH 37,CSAH 37,STREAM,06,WINONA,ELBA (TOWNSHIP OF),0.3 MI S OF JCT CSAH 26,COUNTY HIGHWAY AGENCY,100.0,100.0,32.0,100.0,X,DENIED,X,DENIED,X,DENIED,22.0,36.0,36.0,44.085197,-91.989472,True
92090,2,,2ND ST,,,,,,,12.0,100.0,28.0,100.0,,,,,,,,,,44.944736,-93.090003,True
92091,2,,MUN 686,,,,,,,11.7,11.7,15.0,15.0,,,,,,,,,,44.928222,-93.120803,True
92158,1,MSAS 145,W 70TH ST (MSAS 145),CP RAIL,METRO,HENNEPIN,EDINA,0.5 MI W OF JCT TH 100,CITY OR MUNICIPAL HIGHWA,100.0,100.0,44.0,100.0,X,DENIED,X,DENIED,X,DENIED,36.0,40.0,40.0,44.875806,-93.360444,True
92325,2,,PLYMOUTH AVE N,,,,,,,13.4,100.0,42.0,100.0,,,,,,,,,,44.992022,-93.278764,True
92331,2,,36TH AVE S,,,,,,,12.6,12.5,18.5,18.5,,,,,,,,,,44.953336,-93.220383,True
92338,2,,15TH AVE SE,,,,,,,13.3,100.0,50.0,100.0,,,,,,,,,,44.984378,-93.230872,True
92347,1,MSAS 190,1ST AVE S,MIDTOWN GREENWAY,METRO,HENNEPIN,MINNEAPOLIS,0.1 MI N OF LAKE ST,COUNTY HIGHWAY AGENCY,100.0,100.0,36.0,100.0,X,DENIED,X,DENIED,X,DENIED,24.0,36.0,36.0,44.950297,-93.276633,True
92595,1,CR C,120TH AVE,DITCH,06,DODGE,ELLINGTON (TOWNSHIP OF),0.1 MI S OF CO LINE,COUNTY HIGHWAY AGENCY,100.0,100.0,28.0,100.0,X,DENIED,X,DENIED,X,DENIED,20.0,36.0,36.0,44.196658,-93.000856,True
92687,1,MUN 60,W 34TH ST,MINNEHAHA CREEK,METRO,HENNEPIN,ST LOUIS PARK,0.5 MI SW OF JCT CSAH 5,CITY OR MUNICIPAL HIGHWA,100.0,100.0,30.4,100.0,X,DENIED,X,DENIED,X,DENIED,24.0,36.0,36.0,44.942769,-93.393281,True
92792,1,CR 56,CR 56 (5TH AVE NW),BUNKER HILL CREEK,03,BENTON,LANGOLA (TOWNSHIP OF),0.1 MI N OF JCT CR 40,COUNTY HIGHWAY AGENCY,100.0,100.0,28.0,100.0,X,DENIED,X,DENIED,X,DENIED,,,,45.802472,-94.175933,True
92901,1,CR 116,JAY ST,LE SUEUR CREEK,07,LE SUEUR,TYRONE (TOWNSHIP OF),0.5 MI E OF JCT CR 117,COUNTY HIGHWAY AGENCY,100.0,100.0,24.0,100.0,1,NO RESTRICTION,X,DENIED,X,DENIED,,,,44.470092,-93.890556,True
92902,1,CR 138,400TH ST,CO DITCH # 40,07,LE SUEUR,KILKENNY (TOWNSHIP OF),0.5 MI SE OF JCT TH 13,COUNTY HIGHWAY AGENCY,100.0,100.0,24.0,100.0,X,DENIED,X,DENIED,X,DENIED,,,,44.367942,-93.595383,True
92922,2,,15TH AVE SE,,,,,,,13.2,100.0,50.0,100.0,,,,,,,,,,44.984397,-93.230836,True
93909,1,CSAH 10,CSAH 10,STREAM,03,STEARNS,MUNSON (TOWNSHIP OF),0.1 MI N OF JCT CSAH 16,COUNTY HIGHWAY AGENCY,100.0,100.0,33.5,100.0,X,DENIED,X,DENIED,X,DENIED,,,,45.441008,-94.639983,True
94074,1,CR 56,540TH ST,JUD DITCH # 15,08,RENVILLE,PRESTON LAKE (TOWNSHIP O,1.6 MI N OF JCT TH 212,COUNTY HIGHWAY AGENCY,100.0,100.0,23.0,100.0,X,DENIED,X,DENIED,X,DENIED,16.0,28.0,28.0,44.755386,-94.579444,True
94080,2,,MSAS 119,,,,,,,11.7,100.0,21.4,100.0,,,,,,,,,,44.091175,-93.231972,True
94126,2,,MSAS 118,,,,,,,12.2,100.0,24.0,100.0,,,,,,,,,,44.090478,-93.22795,True
94282,1,CSAH 40,GLENWOOD AVE N,BASSETT CREEK,METRO,HENNEPIN,MINNEAPOLIS,1.0 MI E OF JCT CSAH 2,COUNTY HIGHWAY AGENCY,100.0,100.0,54.0,100.0,X,DENIED,X,DENIED,X,DENIED,,,,44.980131,-93.292947,True
95137,1,T 190,VIBO TR,STREAM,METRO,CHISAGO,SUNRISE (TOWNSHIP OF),1.7 MI N OF JCT CR 74,TOWN OR TOWNSHIP HIGHWAY,100.0,100.0,26.0,100.0,X,DENIED,X,DENIED,X,DENIED,26.0,40.0,40.0,45.470617,-92.865569,True
95543,1,T 42,625TH ST,STREAM,06,DODGE,WASIOJA,0.3 MI W OF JCT CSAH 9,TOWN OR TOWNSHIP HIGHWAY,100.0,100.0,22.0,100.0,X,DENIED,X,DENIED,X,DENIED,20.0,36.0,36.0,44.044369,-92.824425,True
96149,1,CSAH 101,CSAH 101,LUCE LINE TRAIL,METRO,HENNEPIN,PLYMOUTH,0.4 MI N OF JCT TH 12,COUNTY HIGHWAY AGENCY,100.0,100.0,52.0,100.0,X,DENIED,X,DENIED,X,DENIED,,,,44.982139,-93.502236,True
9631,1,MSAS 154,SB JOHN IRELAND BLVD,"I 94, EB OFF; EB ON RP",METRO,RAMSEY,ST PAUL,0.5 MI W OF W JCT TH 35E,STATE HIGHWAY AGENCY,100.0,100.0,33.0,100.0,X,DENIED,X,DENIED,X,DENIED,40.0,40.0,40.0,44.950856,-93.105928,True
9632,1,MSAS 154,NB JOHN IRELAND BLVD,I 94.  EB ON; OFF RAMPS,METRO,RAMSEY,ST PAUL,0.5 MI W OF W JCT TH 35E,STATE HIGHWAY AGENCY,100.0,100.0,33.0,100.0,X,DENIED,X,DENIED,X,DENIED,40.0,40.0,40.0,44.950839,-93.105622,True
96834,2,,Rivers Bend Park Road,,,,,,,10.0,100.0,22.0,100.0,,,,,,,,,,45.227069,-93.392128,True
97572,1,T 316,GOSHEN BLVD,DITCH,METRO,SCOTT,ST LAWRENCE (TOWNSHIP OF,0.6 MI NE OF JCT CR 64,TOWN OR TOWNSHIP HIGHWAY,100.0,100.0,24.0,100.0,X,DENIED,X,DENIED,X,DENIED,16.0,26.0,26.0,44.631278,-93.710817,True
97629,1,T 313,460TH ST,STREAM,06,GOODHUE,ZUMBROTA (TOWNSHIP OF),1.4 MI W OF JCT CR 55,TOWN OR TOWNSHIP HIGHWAY,100.0,100.0,24.0,100.0,3,MAX SPEED 10MPH,X,DENIED,X,DENIED,22.0,38.0,38.0,44.281975,-92.641092,True
9834,1,MSAS 152,CHESHIRE LANE,I 494,METRO,HENNEPIN,MINNETONKA,0.3 MI N OF JCT TH 12,STATE HIGHWAY AGENCY,100.0,100.0,30.0,100.0,1,NO RESTRICTION,3,MAX SPEED 10MPH,X,DENIED,,,,44.975608,-93.460214,True
L0032,1,CR 51,CR 51 (55TH ST NE),STONY BROOK,03,BENTON,ST GEORGE (TOWNSHIP OF),0.4 MI E OF JCT TH 25,COUNTY HIGHWAY AGENCY,100.0,100.0,25.8,100.0,X,DENIED,X,DENIED,X,DENIED,26.0,,,45.647892,-93.907303,True
L0491,1,CSAH 19,CSAH 19,STREAM,06,GOODHUE,WELCH (TOWNSHIP OF),1.6 MI NE OF JCT TH 61,COUNTY HIGHWAY AGENCY,100.0,100.0,27.5,100.0,X,DENIED,X,DENIED,X,DENIED,32.0,40.0,40.0,44.610958,-92.689225,True
L0519,1,CR 44,CR 44,LITTLE CANNON RIVER,06,GOODHUE,HOLDEN (TOWNSHIP OF),1.6 MI E OF JCT TH 56,COUNTY HIGHWAY AGENCY,100.0,100.0,24.0,100.0,X,DENIED,X,DENIED,X,DENIED,32.0,40.0,40.0,44.351017,-92.948508,True
L0549,1,T 15,WELCH TRL,STREAM,06,GOODHUE,WELCH (TOWNSHIP OF),1.3 MI W OF JCT CSAH 7,TOWN OR TOWNSHIP HIGHWAY,100.0,100.0,100.0,100.0,X,DENIED,X,DENIED,X,DENIED,26.0,40.0,40.0,44.557297,-92.757994,True
L0558,1,T 36,HAY CREEK TRAIL,STREAM,06,GOODHUE,FEATHERSTONE (TOWNSHIP O,1.6 MI N OF JCT TH 58,TOWN OR TOWNSHIP HIGHWAY,100.0,100.0,20.0,100.0,X,DENIED,X,DENIED,X,DENIED,36.0,40.0,40.0,44.510136,-92.566258,True
L0613,1,T 147,325TH ST,STREAM,06,GOODHUE,VASA (TOWNSHIP OF),0.5 MI W OF JCT CR 51,TOWN OR TOWNSHIP HIGHWAY,100.0,100.0,20.0,100.0,X,DENIED,X,DENIED,X,DENIED,26.0,40.0,40.0,44.478119,-92.712958,True
L0617,1,T 153,325TH ST,STREAM,06,GOODHUE,FEATHERSTONE (TOWNSHIP O,1.2 MI W OF JCT TH 58,TOWN OR TOWNSHIP HIGHWAY,100.0,100.0,24.0,100.0,X,DENIED,X,DENIED,X,DENIED,18.0,27.0,27.0,44.478667,-92.582247,True
L0618,1,T 153,325TH ST,STREAM,06,GOODHUE,FEATHERSTONE (TOWNSHIP O,1.8 MI W OF JCT TH 58,TOWN OR TOWNSHIP HIGHWAY,100.0,100.0,22.0,100.0,X,DENIED,X,DENIED,X,DENIED,10.0,,,44.471236,-92.590242,True
L0624,1,T 165,90TH AVE,STREAM,06,GOODHUE,WANAMINGO (TOWNSHIP OF),1.2 MI N OF JCT CR 44,TOWN OR TOWNSHIP HIGHWAY,100.0,100.0,23.2,100.0,X,DENIED,X,DENIED,X,DENIED,,,,44.358983,-92.850831,True
L0679,1,T 215,370TH ST,STREAM,06,GOODHUE,GOODHUE (TOWNSHIP OF),1.6 MI E OF JCT CSAH 4,TOWN OR TOWNSHIP HIGHWAY,100.0,100.0,18.0,100.0,X,DENIED,X,DENIED,X,DENIED,26.0,40.0,40.0,44.412225,-92.551919,True
L0693,1,T 237,BROADWAY ST,STREAM,06,GOODHUE,GOODHUE,0.4 MI S OF JCT CSAH 9,TOWN OR TOWNSHIP HIGHWAY,100.0,100.0,16.5,100.0,X,DENIED,X,DENIED,X,DENIED,26.0,40.0,40.0,44.392906,-92.620567,True
L0701,1,T 246,400TH ST,STREAM,06,GOODHUE,ZUMBROTA (TOWNSHIP OF),1.3 MI W OF JCT TH 58,TOWN OR TOWNSHIP HIGHWAY,100.0,100.0,20.0,100.0,X,DENIED,X,DENIED,X,DENIED,14.0,24.0,24.0,44.369056,-92.638808,True
L0740,1,T 312,195TH AVE,PINE ISLAND CREEK,06,GOODHUE,PINE ISLAND (TOWNSHIP OF,1.7 MI N OF JCT TH 52,TOWN OR TOWNSHIP HIGHWAY,100.0,100.0,24.4,100.0,X,DENIED,X,DENIED,X,DENIED,28.0,40.0,40.0,44.235694,-92.640792,True
L1097,1,CR 86,CR 86,STREAM,06,WABASHA,GLASGOW (TOWNSHIP OF),2.8 MI NE OF JCT CSAH4,COUNTY HIGHWAY AGENCY,100.0,100.0,24.4,100.0,X,DENIED,X,DENIED,X,DENIED,26.0,40.0,40.0,44.317167,-92.164092,True
L1172,1,T 107,540TH ST,MID FK ZUMBRO RIVER,06,DODGE,ELLINGTON (TOWNSHIP OF),2.0 MI W OF JCT TH 56,TOWN OR TOWNSHIP HIGHWAY,100.0,100.0,20.0,100.0,X,DENIED,X,DENIED,X,DENIED,20.0,36.0,36.0,44.167981,-92.944333,True
L1429,1,T 125,ARCHES RD,DRY RUN,06,WINONA,WARREN (TOWNSHIP OF),0.9 MI SE OF JCT TH14,TOWN OR TOWNSHIP HIGHWAY,100.0,100.0,16.6,100.0,X,DENIED,X,DENIED,X,DENIED,8.0,,,43.992347,-91.805811,True
L2090,2,,12TH N ST,,,,,,,11.9,100.0,23.0,100.0,,,,,,,,,,44.327133,-94.465875,True
L2481,1,MUN 5,WILLOW RD,STREAM,06,WINONA,ELBA,0.3 MI N OF JCT TH 74,CITY OR MUNICIPAL HIGHWA,100.0,100.0,16.0,100.0,X,DENIED,X,DENIED,X,DENIED,,,,44.079211,-92.025786,True
L2510,1,MUN 41,GRANT ST,N BR ZUMBRO RIVER,06,GOODHUE,PINE ISLAND,0.1 MI W OF JCT CSAH 11,CITY OR MUNICIPAL HIGHWA,100.0,100.0,19.3,100.0,X,DENIED,X,DENIED,X,DENIED,5.0,,,44.208181,-92.651567,True
L2649,1,CSAH 21,461ST AVE,N BR RUSH R (CD 55),07,SIBLEY,DRYDEN (TOWNSHIP OF),2.3 MI NE OF JCT TH19,COUNTY HIGHWAY AGENCY,100.0,100.0,26.0,100.0,X,DENIED,X,DENIED,X,DENIED,16.0,28.0,28.0,44.5713,-94.188872,True
L2721,1,MSAS 124,CREEK RD,CHASKA CREEK,METRO,CARVER,CHASKA,1.48 MI NW OF JCT CSAH 61,CITY OR MUNICIPAL HIGHWA,100.0,100.0,27.8,100.0,X,DENIED,X,DENIED,X,DENIED,26.0,40.0,40.0,44.800944,-93.624906,True
L2723,1,MSAS 124,CREEK RD,CHASKA CREEK,METRO,CARVER,CHASKA,1.5 MI NW OF JCT CSAH 61,CITY OR MUNICIPAL HIGHWA,100.0,100.0,30.0,100.0,X,DENIED,X,DENIED,X,DENIED,24.0,40.0,40.0,44.800644,-93.629997,True
L2798,2,,CR 140,,,,,,,11.7,100.0,22.1,100.0,,,,,,,,,,44.793761,-93.709756,True
L2927,1,T 201,40TH ST,TWO RIVERS,03,MORRISON,TWO RIVERS (TOWNSHIP OF),1.1 MI W OF JCT CSAH 24,TOWN OR TOWNSHIP HIGHWAY,100.0,100.0,23.5,100.0,X,DENIED,X,DENIED,X,DENIED,20.0,36.0,36.0,45.819314,-94.434675,True
L3000,2,,MSAS 119,,,,,,,11.6,11.5,14.0,13.8,,,,,,,,,,44.769786,-93.336159,True
L3126,2,,QUENTIN AVE,,,,,,,10.4,100.0,23.0,100.0,,,,,,,,,,44.772954,-93.343834,True
L3164,1,CSAH 80,CSAH 80,N BR CHUB CREEK,METRO,DAKOTA,CASTLE ROCK (TOWNSHIP OF,0.7 MI W OF JCT TH 3,COUNTY HIGHWAY AGENCY,100.0,100.0,28.4,100.0,X,DENIED,X,DENIED,X,DENIED,40.0,,,44.579942,-93.1502,True
L3165,2,,CSAH 80,,,,,,,13.0,100.0,17.4,100.0,,,,,,,,,,44.579906,-93.148033,True
L3197,2,,LILYDALE RD,,,,,,,11.2,11.5,13.5,12.5,,,,,,,,,,44.904792,-93.135261,True
L3209,1,T 1602,BLAINE AVE,VERMILLION RIVER,METRO,DAKOTA,EMPIRE (TOWNSHIP OF),0.5 MI N OF JCT CSAH 66,TOWN OR TOWNSHIP HIGHWAY,100.0,100.0,23.0,100.0,X,DENIED,X,DENIED,X,DENIED,26.0,40.0,40.0,44.666744,-93.055206,True
L3249,1,T 77,205TH ST E,DRY RUN,METRO,DAKOTA,MARSHAN (TOWNSHIP OF),0.3 MI W OF JCT TH 61,TOWN OR TOWNSHIP HIGHWAY,100.0,100.0,18.8,100.0,X,DENIED,X,DENIED,X,DENIED,,,,44.653214,-92.859639,True
L3253,1,T 93,230TH ST E,STREAM,METRO,DAKOTA,CASTLE ROCK (TOWNSHIP OF,0.1 MI W OF JCT CSAH 79,TOWN OR TOWNSHIP HIGHWAY,100.0,100.0,21.8,100.0,X,DENIED,X,DENIED,X,DENIED,26.0,40.0,40.0,44.615906,-93.055717,True
L3254,1,T 93,230TH ST E,S BR VERMILLION RIVER,METRO,DAKOTA,CASTLE ROCK (TOWNSHIP OF,0.5 MI W OF JCT CSAH 79,TOWN OR TOWNSHIP HIGHWAY,100.0,100.0,24.3,100.0,X,DENIED,X,DENIED,X,DENIED,26.0,40.0,40.0,44.615939,-93.065797,True
L3261,2,,TNSP 115,,,,,,,12.5,100.0,16.0,100.0,,,,,,,,,,44.550939,-93.151222,True
L3275,1,PRIVATE RD,OLD CANADA AVE,CANNON RIVER,METRO,DAKOTA,WATERFORD (TOWNSHIP OF),0.1 MI SE OF JCT CSAH 47,TOWN OR TOWNSHIP HIGHWAY,7.6,100.0,15.5,100.0,N,,N,,N,,4.0,,,44.4875,-93.128447,True
L3283,1,T 187,HARRY AVE,STREAM,METRO,DAKOTA,RANDOLPH (TOWNSHIP OF),0.1 MI N OF JCT CSAH 88,TOWN OR TOWNSHIP HIGHWAY,100.0,100.0,25.4,100.0,X,DENIED,X,DENIED,X,DENIED,,,,44.523206,-92.939186,True
L3285,1,T 188,INGA AVE,PINE CREEK,METRO,DAKOTA,HAMPTON (TOWNSHIP OF),3.2 MI S OF JCT TH 50,TOWN OR TOWNSHIP HIGHWAY,100.0,100.0,24.4,100.0,X,DENIED,X,DENIED,X,DENIED,26.0,40.0,40.0,44.554344,-92.913942,True
L4117,1,T 176,55TH ST,IOSCO CREEK,07,WASECA,JANESVILLE (TOWNSHIP OF),0.3 MI S OF JCT CSAH 3,TOWN OR TOWNSHIP HIGHWAY,100.0,100.0,19.0,100.0,X,DENIED,X,DENIED,X,DENIED,20.0,32.0,32.0,44.180333,-93.657653,True
L4965,1,MUN 41,6TH ST,EAST CHASKA CREEK,METRO,CARVER,CHASKA,0.1 MI E OF JCT CSAH 61,CITY OR MUNICIPAL HIGHWA,100.0,100.0,20.0,100.0,X,DENIED,X,DENIED,X,DENIED,18.0,29.0,29.0,44.790097,-93.597839,True
L4966,1,MUN 47,3RD ST,CHASKA CREEK,METRO,CARVER,CHASKA,0.2 MI SE OF JCT CSAH 61,CITY OR MUNICIPAL HIGHWA,100.0,100.0,40.0,100.0,X,DENIED,X,DENIED,X,DENIED,26.0,40.0,40.0,44.785383,-93.605581,True
L4967,1,MUN 7,3RD ST W,CARVER SPRING,METRO,CARVER,CARVER,0.1 MI SW OF JCT CSAH 40,CITY OR MUNICIPAL HIGHWA,100.0,100.0,35.0,100.0,X,DENIED,X,DENIED,X,DENIED,24.0,40.0,40.0,44.762644,-93.625267,True
L4969,2,,MAIN STREET E,,,,,,,12.1,100.0,23.5,100.0,,,,,,,,,,44.763697,-93.622475,True
L5391,1,MUN 58,3RD ST N,CANNON RIVER,06,GOODHUE,CANNON FALLS,0.5 MI N OF JCT TH 19,CITY OR MUNICIPAL HIGHWA,7.9,100.0,17.0,100.0,X,DENIED,X,DENIED,X,DENIED,5.0,,,44.513489,-92.904275,True
L5477,1,T 267,112TH AVE,CO DITCH # 7,07,BROWN,LINDEN (TOWNSHIP OF),1.4 MI NE OF JCT CSAH 20,COUNTY HIGHWAY AGENCY,100.0,100.0,24.0,100.0,X,DENIED,X,DENIED,X,DENIED,24.0,40.0,40.0,44.187064,-94.394067,True
L5486,2,,MUN 31,,,,,,,11.4,100.0,22.0,100.0,,,,,,,,,,44.431992,-92.250908,True
L5504,1,T 134,230TH AVE,STREAM,06,DODGE,CANISTEO (TOWNSHIP OF),1.8 MI N OF JCT CSAH 6,TOWN OR TOWNSHIP HIGHWAY,100.0,100.0,18.0,100.0,X,DENIED,X,DENIED,X,DENIED,26.0,40.0,40.0,43.990772,-92.778586,True
L5514,1,T 142,200TH AVE,DITCH,06,DODGE,ASHLAND (TOWNSHIP OF),0.7 MI S OF JCT CSAH 10,TOWN OR TOWNSHIP HIGHWAY,100.0,100.0,24.0,100.0,X,DENIED,X,DENIED,X,DENIED,26.0,,,43.998269,-92.839103,True
L5522,1,T 147,170TH AVE,STREAM,06,DODGE,ASHLAND (TOWNSHIP OF),1.2 MI S OF JCT CSAH 10,TOWN OR TOWNSHIP HIGHWAY,100.0,100.0,24.0,100.0,X,DENIED,X,DENIED,X,DENIED,20.0,36.0,36.0,43.9917,-92.899431,True
L5534,1,T 154,150TH AVE,STREAM,06,DODGE,RIPLEY (TOWNSHIP OF),0.4 MI S OF JCT CSAH 10,TOWN OR TOWNSHIP HIGHWAY,100.0,100.0,22.0,100.0,X,DENIED,X,DENIED,X,DENIED,24.0,40.0,40.0,44.004036,-92.945197,True
L5559,2,,TWNS 38,,,,,,,11.4,100.0,27.0,100.0,,,,,,,,,,44.077533,-93.326553,True
L5722,1,MUN 512,LAKE OF THE ISLES BD (MUN 512),CHANNEL,METRO,HENNEPIN,MINNEAPOLIS,0.1 MI N OF LAKE ST,"LOCAL PARK, FOREST, OR R",100.0,100.0,15.9,100.0,X,DENIED,X,DENIED,X,DENIED,,,,44.951156,-93.306069,True
L5725,2,,MUN 989,,,,,,,12.8,100.0,24.3,100.0,,,,,,,,,,44.952983,-93.076675,True
L5728,2,,Knox Ave S,,,,,,,11.5,11.5,16.0,16.0,,,,,,,,,,44.950475,-93.304986,True
L5729,1,MUN 512,W LAKE ISLES PARKWAY,CHANNEL TO CEDAR LK,METRO,HENNEPIN,MINNEAPOLIS,0.6 MI NW OF LAKE ST,"LOCAL PARK, FOREST, OR R",100.0,100.0,24.0,100.0,X,DENIED,X,DENIED,X,DENIED,,,,44.954711,-93.312033,True
L5731,1,MUN 1641,MINNEHAHA PARKWAY,MINNEHAHA CREEK,METRO,HENNEPIN,MINNEAPOLIS,0.3 MI E OF LYNDALE AVE,"LOCAL PARK, FOREST, OR R",100.0,100.0,16.0,100.0,X,DENIED,X,DENIED,X,DENIED,16.0,26.0,26.0,44.907397,-93.283897,True
L5735,1,MUN 1508,LAKE NOKOMIS PKWY,MINNEHAHA CREEK,METRO,HENNEPIN,MINNEAPOLIS,0.2 MI E OF CEDAR AVE,"LOCAL PARK, FOREST, OR R",100.0,100.0,24.0,100.0,X,DENIED,X,DENIED,X,DENIED,32.0,40.0,40.0,44.915272,-93.241897,True
L5738,1,T 64,GRANDVIEW RD,LITTLE COTTONWOOD RIVER,07,BROWN,SIGEL (TOWNSHIP OF),1.0 MI S OF JCT CSAH 24,COUNTY HIGHWAY AGENCY,100.0,100.0,24.0,100.0,X,DENIED,X,DENIED,X,DENIED,20.0,32.0,32.0,44.225133,-94.551842,True
L5763,2,,ST ANTHONY PKWY (MUNI 97),,,,,,,11.0,11.1,16.0,16.0,,,,,,,,,,45.025039,-93.248967,True
L5765,1,MUN 1121,MINNEHAHA PARKWAY,MINNEHAHA CREEK,METRO,HENNEPIN,MINNEAPOLIS,0.1 MI E OF PORTLAND AVE,"LOCAL PARK, FOREST, OR R",100.0,100.0,24.0,100.0,X,DENIED,X,DENIED,X,DENIED,16.0,26.0,26.0,44.91245,-93.266656,True
L5773,1,MUN 980,BLACK DOG RD,BLACKDOG CREEK,METRO,DAKOTA,BURNSVILLE,0.1 MI W OF TH 77,CITY OR MUNICIPAL HIGHWA,100.0,100.0,22.0,100.0,X,DENIED,X,DENIED,X,DENIED,18.0,32.0,30.0,44.825006,-93.233483,True
L5820,1,T 33,204TH AVE,STREAM,06,WABASHA,PEPIN (TOWNSHIP OF),0.6 MI SW OF JCT CSAH10,TOWN OR TOWNSHIP HIGHWAY,100.0,100.0,18.1,100.0,X,DENIED,X,DENIED,X,DENIED,,,,44.380858,-92.083322,True
L5989,1,T 158,182ND ST,SILVER CREEK,07,SIBLEY,FAXON (TOWNSHIP OF),AT N CO LINE,TOWN OR TOWNSHIP HIGHWAY,100.0,100.0,24.0,100.0,X,DENIED,X,DENIED,X,DENIED,10.0,18.0,18.0,44.673339,-93.822375,True
L6141,2,,MUN 451,,,,,,,13.4,100.0,24.0,100.0,,,,,,,,,,44.159236,-94.028983,True
L6149,2,,Sibley Pkwy,,,,,,,8.6,100.0,20.0,100.0,,,,,,,,,,44.162731,-94.017906,True
L6250,1,T 202,280TH ST,STREAM,06,DODGE,MANTORVILLE (TOWNSHIP OF,1.5 MI N OF JCT TH 14,TOWN OR TOWNSHIP HIGHWAY,100.0,100.0,24.0,100.0,X,DENIED,X,DENIED,X,DENIED,5.0,,,44.051522,-92.678167,True
L6274,1,T 230,70TH AVE NE,STREAM,06,OLMSTED,FARMINGTON (TOWNSHIP OF),1.6 MI N  JCT CR 124 ON ,TOWN OR TOWNSHIP HIGHWAY,100.0,100.0,21.0,100.0,X,DENIED,X,DENIED,X,DENIED,12.0,20.0,20.0,44.116192,-92.339042,True
L6322,1,CR 121,90TH ST NW,South Fork Zumbro River,06,OLMSTED,ORONOCO (TOWNSHIP OF),1.4 MI E OF JCT CR 112,COUNTY HIGHWAY AGENCY,13.4,100.0,15.0,100.0,N,,N,,N,,,,,44.129647,-92.462508,True
L6387,1,T 262,430TH ST,LITTLE CANNON RIVER,06,GOODHUE,HOLDEN (TOWNSHIP OF),0.3 MI W OF JCT TH 246,TOWN OR TOWNSHIP HIGHWAY,100.0,100.0,24.0,100.0,X,DENIED,X,DENIED,X,DENIED,6.0,,,44.327694,-93.026258,True
L6497,1,MUN 825,FELTL RD,PED WALK,METRO,HENNEPIN,MINNETONKA,0.1 MI N OF BREN RD W,CITY OR MUNICIPAL HIGHWA,100.0,100.0,39.0,100.0,X,DENIED,X,DENIED,X,DENIED,,,,44.901672,-93.417581,True
L7156,1,T 193,TWNS 193 (Old River Bluff Rd),STREAM,07,NICOLLET,BELGRADE (TOWNSHIP OF),0.3 MI S OF JCT 490TH ST.,TOWN OR TOWNSHIP HIGHWAY,100.0,100.0,24.0,100.0,X,DENIED,X,DENIED,X,DENIED,20.0,32.0,32.0,44.2338,-94.028917,True
L8072,2,,MSAS 126(INDIAN CHIEF),,,,,,,11.2,100.0,20.0,100.0,,,,,,,,,,44.888633,-93.461167,True
L8073,1,MUN 118,CREEK KNOLL RD,PURGATORY CREEK,METRO,HENNEPIN,EDEN PRAIRIE,0.1 MI N OF JCT CSAH 1,CITY OR MUNICIPAL HIGHWA,100.0,100.0,30.9,100.0,X,DENIED,X,DENIED,X,DENIED,,,,44.831958,-93.438697,True
L8077,1,MSAS 113,SCHUTTE RD,S FK RUSH CREEK,METRO,HENNEPIN,CORCORAN,0.3 MI W OF JCT CSAH 101,CITY OR MUNICIPAL HIGHWA,100.0,100.0,24.7,100.0,X,DENIED,X,DENIED,X,DENIED,12.0,18.0,18.0,45.116542,-93.528861,True
L8084,1,MSAS 130,101ST AVE,RUSH CREEK S FORK,METRO,HENNEPIN,MAPLE GROVE,0.8 MI E OF JCT CSAH 101,CITY OR MUNICIPAL HIGHWA,100.0,100.0,26.0,100.0,X,DENIED,X,DENIED,X,DENIED,18.0,28.0,28.0,45.138314,-93.506547,True
L8092,2,,TWNS 582,,,,,,,11.0,100.0,17.5,100.0,,,,,,,,,,45.080211,-94.2519,True
L8103,2,,TWNS 434,,,,,,,12.0,100.0,24.0,100.0,,,,,,,,,,45.268897,-94.157172,True
L8126,1,T 413,KEATS AVE SW,BNSF RR,03,WRIGHT,MIDDLEVILLE (TOWNSHIP OF,0.4 MI N OF JCT TH 12,TOWN OR TOWNSHIP HIGHWAY,100.0,100.0,24.0,100.0,X,DENIED,X,DENIED,X,DENIED,26.0,40.0,40.0,45.071111,-94.094194,True
L8138,1,T 29,90TH AVE,RICE CREEK,03,SHERBURNE,PALMER (TOWNSHIP OF),0.1 MI S OF JCT CR 61,TOWN OR TOWNSHIP HIGHWAY,100.0,100.0,30.1,100.0,X,DENIED,X,DENIED,X,DENIED,40.0,,,45.499267,-93.974792,True
L8182,2,,TWNS 87,,,,,,,12.3,100.0,16.0,100.0,,,,,,,,,,45.123,-92.752167,True
L8186,1,MUN 62,FOREST RD N,HARDWOOD CREEK,METRO,WASHINGTON,HUGO,0.2 MI S OF 180 ST,CITY OR MUNICIPAL HIGHWA,100.0,100.0,18.0,100.0,X,DENIED,X,DENIED,X,DENIED,8.0,14.0,14.0,45.208619,-92.980606,True
L8370,1,MUN 95,MEASURE DR,JEWETT CREEK (CD # 19),08,MEEKER,LITCHFIELD (TOWNSHIP OF),1.0 MI W OF JCT TH 22,TOWN OR TOWNSHIP HIGHWAY,100.0,100.0,24.9,100.0,X,DENIED,X,DENIED,X,DENIED,3.0,,,45.112497,-94.549672,True
L8592,1,T 163,NE 64TH AVE,MAPLE CREEK,06,STEELE,HAVANA (TOWNSHIP OF),0.5 MI S OF JCT CSAH 35,TOWN OR TOWNSHIP HIGHWAY,100.0,100.0,22.0,100.0,X,DENIED,X,DENIED,X,DENIED,21.0,36.0,39.0,44.10315,-93.106306,True
L8751,1,CSAH 52,CSAH 52,WHITE WATER CREEK,07,LE SUEUR,WATERVILLE,0.3 MI SW OF JCT TH 13,COUNTY HIGHWAY AGENCY,100.0,100.0,50.5,100.0,X,DENIED,X,DENIED,X,DENIED,16.0,24.0,24.0,44.216981,-93.566278,True
L8753,2,,MUN 61,,,,,,,12.4,12.4,11.0,10.5,,,,,,,,,,44.296817,-93.282814,True
L8782,2,,4TH STREET,,,,,,,11.7,11.8,12.2,14.3,,,,,,,,,,44.952878,-93.078278,True
L8786,2,,4TH ST,,,,,,,12.7,100.0,12.2,100.0,,,,,,,,,,44.953086,-93.077333,True
L8787,2,,4TH ST (MUN 989),,,,,,,13.2,0.0,12.0,12.0,,,,,,,,,,44.953086,-93.077339,True
L8860,1,PEDESTRIAN,PEDESTRIAN,ELM CREEK,METRO,HENNEPIN,MAPLE GROVE,0.5 MI N OF JCT MSAS 102,CITY OR MUNICIPAL HIGHWA,100.0,100.0,8.0,100.0,,,,,,,,,,45.109419,-93.473733,True
L8888,2,,SOO AVE N,,,,,,,12.6,100.0,24.0,100.0,,,,,,,,,,45.031222,-93.286444,True
L8895,2,,SPRING ST NE,,,,,,,12.8,12.9,19.5,19.5,,,,,,,,,,44.99595,-93.245453,True
L8902,1,MUN 700,COLFAX AVE S (MUN 700),MIDTOWN GREENWAY,METRO,HENNEPIN,MINNEAPOLIS,0.1 MI N OF LAKE ST,COUNTY HIGHWAY AGENCY,100.0,100.0,30.0,100.0,X,DENIED,X,DENIED,X,DENIED,24.0,36.0,36.0,44.950294,-93.2919,True
L8903,1,MUN 706,BRYANT AVE SO,MIDTOWN GREENWAY,METRO,HENNEPIN,MINNEAPOLIS,0.1 MI N OF LAKE ST,COUNTY HIGHWAY AGENCY,100.0,100.0,30.0,100.0,X,DENIED,X,DENIED,X,DENIED,40.0,,,44.950267,-93.290628,True
L8907,1,MUN 714,GRAND AVE S (MUN 714),MIDTOWN GREENWAY,METRO,HENNEPIN,MINNEAPOLIS,0.1 MI N OF LAKE ST,COUNTY HIGHWAY AGENCY,100.0,100.0,30.0,100.0,X,DENIED,X,DENIED,X,DENIED,25.0,40.0,40.0,44.950286,-93.284272,True
L8909,1,MUN 2008,PILLSBURY AVE SO (MUN 2008),MIDTOWN GREENWAY,METRO,HENNEPIN,MINNEAPOLIS,0.1 MI N OF LAKE ST,COUNTY HIGHWAY AGENCY,100.0,100.0,31.5,100.0,X,DENIED,X,DENIED,X,DENIED,40.0,,,44.950339,-93.281333,True
L8910,1,MUN 1034,STEVENS AVE SO (MUN 1034),MIDTOWN GREENWAY,METRO,HENNEPIN,MINNEAPOLIS,0.1 MI N OF LAKE ST,COUNTY HIGHWAY AGENCY,100.0,100.0,32.0,100.0,X,DENIED,X,DENIED,X,DENIED,40.0,,,44.950339,-93.275361,True
L8911,1,MUN 766,OAKLAND AVE SO (MUN 766),MIDTOWN GREENWAY,METRO,HENNEPIN,MINNEAPOLIS,0.1 MI N OF LAKE ST,COUNTY HIGHWAY AGENCY,100.0,100.0,31.5,100.0,X,DENIED,X,DENIED,X,DENIED,40.0,,,44.950356,-93.266472,True
L8915,1,MUN 2298,10TH AVE S (MUN 1946),MIDTOWN GREENWAY,METRO,HENNEPIN,MINNEAPOLIS,0.1 MI N OF LAKE ST,COUNTY HIGHWAY AGENCY,100.0,100.0,32.0,100.0,X,DENIED,X,DENIED,X,DENIED,,,,44.950364,-93.260131,True
L8918,1,MUN 808,13TH AVE SO (MUN 808),MIDTOWN GREENWAY,METRO,HENNEPIN,MINNEAPOLIS,0.1 MI N OF LAKE ST,COUNTY HIGHWAY AGENCY,100.0,100.0,32.0,100.0,X,DENIED,X,DENIED,X,DENIED,40.0,,,44.950322,-93.256308,True
L8922,1,MUN 1062,17TH AVE S (MUN 1062),MIDTOWN GREENWAY,METRO,HENNEPIN,MINNEAPOLIS,0.1 MI N OF LAKE ST,COUNTY HIGHWAY AGENCY,100.0,100.0,32.0,100.0,X,DENIED,X,DENIED,X,DENIED,40.0,,,44.950333,-93.249947,True
L9114,2,,MUN 48,,,,,,,12.7,100.0,25.7,100.0,,,,,,,,,,43.984661,-94.624,True
L9218,1,MUN 823,BEAMONT ST E;DREWRY ST,PEDESTRIAN UNDERTAKE,METRO,RAMSEY,ST PAUL,0.1 MI S OF JCT MSAS179,CITY OR MUNICIPAL HIGHWA,100.0,100.0,40.0,100.0,X,DENIED,X,DENIED,X,DENIED,26.0,40.0,40.0,44.961758,-93.073914,True
L9327,1,MUN 57,THEO WIRTH PARKWAY,BASSETT CREEK,METRO,HENNEPIN,GOLDEN VALLEY,0.5 MI S OF JCT CSAH 66,"LOCAL PARK, FOREST, OR R",100.0,100.0,24.0,100.0,X,DENIED,X,DENIED,X,DENIED,,,,44.993503,-93.321511,True
L9328,1,MUN 1206,WILLIAM BERRY PKWY,Como-Harriet Streetcar,METRO,HENNEPIN,MINNEAPOLIS,0.2 MI N OF LK HARRIET P,"LOCAL PARK, FOREST, OR R",100.0,100.0,30.0,100.0,X,DENIED,X,DENIED,X,DENIED,,,,44.931197,-93.308328,True
L9384,1,MSAS 107,TRL HAVEN RD,RUSH CREEK,METRO,HENNEPIN,CORCORAN,0.9 MI N OF JCT CSAH 30,CITY OR MUNICIPAL HIGHWA,100.0,100.0,27.0,100.0,X,DENIED,X,DENIED,X,DENIED,5.0,,,45.144314,-93.584222,True
L9472,1,MUN 13,5TH ST,BITTER CREEK,06,GOODHUE,ZUMBROTA,0.1 MI W OF JCT TH 58,CITY OR MUNICIPAL HIGHWA,100.0,100.0,38.0,100.0,X,DENIED,X,DENIED,X,DENIED,,,,44.292431,-92.671403,True
L9560,1,T 20,670TH ST,JD #11,06,DODGE,RIPLEY (TOWNSHIP OF),1.8 MI W OF JCT CSAH 3,TOWN OR TOWNSHIP HIGHWAY,100.0,100.0,24.0,100.0,X,DENIED,X,DENIED,X,DENIED,12.0,20.0,20.0,43.979225,-93.02205,True
L9636,1,T 149,90TH AVE,TWO RIVERS,03,MORRISON,ELMDALE (TOWNSHIP OF),0.8 MI S OF JCT TH 238,TOWN OR TOWNSHIP HIGHWAY,100.0,100.0,23.3,100.0,1,NO RESTRICTION,X,DENIED,X,DENIED,,,,45.82265,-94.472608,True
L9853,2,,THEO WIRTH PKWY,,,,,,,13.4,100.0,24.0,100.0,,,,,,,,,,44.991744,-93.322975,True
L9990,2,,MUN 3,,,,,,,12.4,100.0,22.0,100.0,,,,,,,,,,44.7468,-92.847747,True
R0282,1,T 309,80TH AVE NE,DRY RUN,06,OLMSTED,HAVERHILL (TOWNSHIP OF),1.0 MI N  JCT CR 124 ON ,TOWN OR TOWNSHIP HIGHWAY,100.0,100.0,20.0,100.0,X,DENIED,X,DENIED,X,DENIED,14.0,24.0,24.0,44.107739,-92.318969,True
R0572,2,,ALLEY,,,,,,,10.1,100.0,20.0,100.0,,,,,,,,,,44.021808,-92.462272,True
R0573,2,,ALLEY,,,,,,,10.2,100.0,20.0,100.0,,,,,,,,,,44.021222,-92.46225,True
R0574,2,,ALLEY,,,,,,,10.1,100.0,22.0,100.0,,,,,,,,,,44.021194,-92.462306,True
R0575,2,,ALLEY,,,,,,,10.1,100.0,20.0,100.0,,,,,,,,,,44.021278,-92.462306,True
R0653,1,CR 119,160TH AVE,ESTES BROOK,03,MILLE LACS,MILO (TOWNSHIP OF),2.3 MI S OF JCT TH 23,COUNTY HIGHWAY AGENCY,100.0,100.0,24.0,100.0,X,DENIED,X,DENIED,X,DENIED,10.0,16.0,16.0,45.692494,-93.740364,True
R0763,2,,EMERSON AVE,,,,,,,12.2,100.0,100.0,100.0,,,,,,,,,,45.065458,-93.972044,True
R0803,1,MUN 142,WILLOW CREEK RD,NINE MILE CREEK,METRO,HENNEPIN,EDEN PRAIRIE,0.13 MI W OF JCT BRYANT,CITY OR MUNICIPAL HIGHWA,100.0,100.0,18.5,100.0,X,DENIED,X,DENIED,X,DENIED,,,,44.8729,-93.4198,True
R0831,2,,GLUMACK DR,,,,,,,13.0,13.0,70.0,55.0,,,,,,,,,,44.881031,-93.205728,True
R0834,2,,TERMINAL 1 RD,,,,,,,11.6,11.6,44.0,55.0,,,,,,,,,,44.88317,-93.21075,True
R0837,2,,GLUMACK RD,,,,,,,11.6,11.6,50.0,38.0,,,,,,,,,,44.88342,-93.21042,True
R0838,2,,GLUMACK RD,,,,,,,11.6,11.6,50.0,38.0,,,,,,,,,,44.88278,-93.21094,True
R0859,2,,OUTER SERVICE RD,,,,,,,13.0,100.0,25.0,100.0,,,,,,,,,,44.88278,-93.21306,True
R0885,1,PRIVATE RD,25250 PILLSBURY AVE,STREAM,METRO,SCOTT,NEW MARKET (TOWNSHIP OF),0.1 MI W OF JCT CSAH 46,COUNTY HIGHWAY AGENCY,100.0,100.0,20.0,100.0,X,DENIED,X,DENIED,X,DENIED,22.0,36.0,36.0,44.579482,-93.285131,True
R0886,1,PRIVATE RD,25526 PILLSBURY AVE,STREAM,METRO,SCOTT,NEW MARKET (TOWNSHIP OF),0.1 MI W OF JCT CSAH 46,COUNTY HIGHWAY AGENCY,100.0,100.0,20.0,100.0,X,DENIED,X,DENIED,X,DENIED,22.0,36.0,36.0,44.57874,-93.285089,True
